{
  "norad_id": 55103,
  "name": "KUWAITSAT-1",
  "history": [
    {
      "epoch": "2026-03-28T17:17:20.219424",
      "apogee_km": 433.79408817237254,
      "perigee_km": 422.128979773026,
      "latitude_deg": -30.57051293729356,
      "longitude_deg": 119.45579936006106,
      "semi_major_axis_km": 6806.098533972699,
      "eccentricity": 0.00085696,
      "inclination_deg": 97.3319,
      "raan_deg": 157.441,
      "arg_perigee_deg": 19.6193,
      "mean_anomaly_deg": 340.5384,
      "mean_motion_rev_day": 15.46163489
    },
    {
      "epoch": "2026-03-29T04:09:41.606208",
      "apogee_km": 433.7019103097564,
      "perigee_km": 422.0472960404786,
      "latitude_deg": 47.80667757379813,
      "longitude_deg": 162.9462291202508,
      "semi_major_axis_km": 6806.011603175117,
      "eccentricity": 0.0008562,
      "inclination_deg": 97.3317,
      "raan_deg": 157.8994,
      "arg_perigee_deg": 17.7386,
      "mean_anomaly_deg": 342.4161,
      "mean_motion_rev_day": 15.46193112
    }
  ]
}